STARLINK-3271           
1 50167U 21125M   26068.75060752 -.00000398  00000+0 -69509-5 0  9999
2 50167  53.2161 258.8616 0001256  85.6499 274.4636 15.08835168236468
DISKSAT B               
1 67220U 25305B   26068.81497770  .00012481  00000+0  82401-3 0  9990
2 67220  45.0018 250.2098 0003783 311.4052  48.6498 15.07484556 12311
